NUSHSAT1                
1 63211U 25052B   26068.64700493  .00023034  00000+0  74857-3 0  9997
2 63211  97.4095 325.7239 0005501  84.7512 275.4357 15.31903202 54882
STARLINK-35570          
1 66090U 25236E   26068.33105382  .00022963  00000+0  78500-3 0  9990
2 66090  53.1572 105.2583 0001274  88.6862 271.4284 15.30200309 22894
